STARLINK-2095
1 47679U 21012BM  26090.83335647  .00550644  00000+0  19934-2 0  9996
2 47679  53.0190 236.1535 0008288 300.2641 351.0222 15.86625116  6013
